ERS-1                   
1 21574U 91050A   26070.01804142  .00000374  00000+0  13441-3 0  9998
2 21574  98.7880  88.2860 0031691 196.4716 163.5444 14.39450493815921
ARIANE 40 R/B           
1 21610U 91050F   26070.06583348  .00000343  00000+0  11510-3 0  9997
2 21610  98.2009 122.2505 0004269  78.2116 281.9554 14.42894673819193
INTERCOSMOS 25          
1 21819U 91086A   26070.14369673  .00001787  00000+0  34318-3 0  9993
2 21819  82.6047 309.1297 1486954 113.8002 262.5874 12.12003930496861
SL-8 R/B                
1 21876U 92008B   26070.27155412  .00000015  00000+0 -52214-6 0  9991
2 21876  82.9222 266.6013 0035599 129.0547  44.3989 13.75969828709634
SL-8 R/B                
1 21938U 92020B   26070.29194822  .00000068  00000+0  55454-4 0  9998
2 21938  82.9334 152.5721 0027638 294.1459 124.3175 13.75549719701357
USA 81                  
1 21949U 92023A   26070.26553288  .00000183  00000+0  60310-4 0  9990
2 21949  85.0082 130.5321 0002414  76.6973 283.4489 14.32368535 95017
COSMOS 2219             
1 22219U 92076A   26070.28945117  .00000079  00000+0  66280-4 0  9993
2 22219  71.0638  14.7233 0018906 204.8578 155.1636 14.14093035718600
SL-16 R/B               
1 22220U 92076B   26070.31246113 -.00000170  00000+0 -60952-4 0  9993
2 22220  71.0009 184.9555 0010456  93.4655 287.3581 14.16859323722065
COSMOS 2221             
1 22236U 92080A   26070.04179946  .00002272  00000+0  19892-3 0  9993
2 22236  82.5012 277.7855 0014171 182.3730 177.7428 14.96206244780991
SL-16 R/B               
1 22285U 92093B   26070.22357266 -.00000180  00000+0 -67912-4 0  9999
2 22285  71.0242   1.0459 0006389 292.1211  67.9233 14.15447453713379
COSMOS 2228             
1 22286U 92094A   26070.25776460  .00003048  00000+0  26069-3 0  9996
2 22286  82.5158 235.8087 0016737 299.0953  60.8593 14.97199028776297
SL-16 R/B               
1 22566U 93016B   26069.84008505  .00000064  00000+0  57280-4 0  9998
2 22566  71.0075 212.7643 0011877 312.5676  47.4444 14.15309060702333
